ONEWEB-0267             
1 48985U 21060U   23059.51296518  .00000082  00000+0  18038-3 0  9991
2 48985  87.9009 108.6689 0001438  89.2008 270.9288 13.16596268 81079
ONEWEB-0267             
1 48985U 21060U   23059.89294919  .00000160  00000+0  38595-3 0  9992
2 48985  87.9007 108.5931 0001429  89.7787 270.3508 13.16596264 81126
ONEWEB-0267             
1 48985U 21060U   23060.19693697  .00000001  00000+0 -29985-4 0  9992
2 48985  87.9009 108.5325 0001434  89.7423 270.3873 13.16596319 82451
ONEWEB-0267             
1 48985U 21060U   23060.88090824  .00000228  00000+0  56299-3 0  9998
2 48985  87.9008 108.3959 0001429  90.2655 269.8640 13.16596118 81258
ONEWEB-0267             
1 48985U 21060U   23061.56488044  .00000032  00000+0  50729-4 0  9995
2 48985  87.9006 108.2593 0001419  91.6983 268.4310 13.16595892 81344
ONEWEB-0267             
1 48985U 21060U   23062.17285485  .00000077  00000+0  16813-3 0  9991
2 48985  87.9005 108.1380 0001425  91.5538 268.5756 13.16596115 82714
ONEWEB-0267             
1 48985U 21060U   23062.55283887  .00000117  00000+0  27361-3 0  9992
2 48985  87.9003 108.0620 0001429  92.1445 267.9849 13.16596135 81476
ONEWEB-0267             
1 48985U 21060U   23062.85682756 -.00000143  00000+0 -40738-3 0  9997
2 48985  87.9003 108.0014 0001435  91.7089 268.4207 13.16595397 81517
